{
  "type": "FeatureCollection",
  "features": [
    {
      "type": "Feature",
      "properties": {
        "norad_id": 24946,
        "name": "IRIDIUM 33",
        "group": "iridium-33-debris",
        "lat": -77.10614434554995,
        "lon": -92.22257952968981,
        "alt_km": 778.389340690761,
        "timestamp": "2025-12-04T07:39:36.516815+00:00",
        "meta_object_name": "IRIDIUM 33",
        "meta_object_id": "1997-051C",
        "meta_epoch": "2025-12-03T18:44:55.101120",
        "meta_mean_motion": 14.35026626,
        "meta_eccentricity": 0.00061595,
        "meta_inclination": 86.3871,
        "meta_ra_of_asc_node": 71.9815,
        "meta_arg_of_pericenter": 234.9647,
        "meta_mean_anomaly": 125.0972,
        "meta_ephemeris_type": 0,
        "meta_classification_type": "U",
        "meta_norad_cat_id": 24946,
        "meta_element_set_no": 999,
        "meta_rev_at_epoch": 47706,
        "meta_bstar": 0.00019630892,
        "meta_mean_motion_dot": 5.79e-06,
        "meta_mean_motion_ddot": 0,
        "tle_line1": "1 24946U 97051C   25337.78119330  .00000579  00000+0  19631-3 0  9992",
        "tle_line2": "2 24946  86.3871  71.9815 0006159 234.9647 125.0972 14.35026626477062"
      },
      "geometry": {
        "type": "Point",
        "coordinates": [
          -92.22257952968981,
          -77.10614434554995
        ]
      }
    },
    {
      "type": "Feature",
      "properties": {
        "norad_id": 33773,
        "name": "IRIDIUM 33 DEB",
        "group": "iridium-33-debris",
        "lat": -33.929804561819665,
        "lon": 61.73085257106942,
        "alt_km": 761.5182630223826,
        "timestamp": "2025-12-04T07:39:36.516858+00:00",
        "meta_object_name": "IRIDIUM 33 DEB",
        "meta_object_id": "1997-051L",
        "meta_epoch": "2025-12-03T18:30:20.533536",
        "meta_mean_motion": 14.43223741,
        "meta_eccentricity": 0.00115344,
        "meta_inclination": 86.4015,
        "meta_ra_of_asc_node": 64.3893,
        "meta_arg_of_pericenter": 174.0579,
        "meta_mean_anomaly": 186.0761,
        "meta_ephemeris_type": 0,
        "meta_classification_type": "U",
        "meta_norad_cat_id": 33773,
        "meta_element_set_no": 999,
        "meta_rev_at_epoch": 88218,
        "meta_bstar": 0.00052399114,
        "meta_mean_motion_dot": 1.782e-05,
        "meta_mean_motion_ddot": 0,
        "tle_line1": "1 33773U 97051L   25337.77107099  .00001782  00000+0  52399-3 0  9993",
        "tle_line2": "2 33773  86.4015  64.3893 0011534 174.0579 186.0761 14.43223741882186"
      },
      "geometry": {
        "type": "Point",
        "coordinates": [
          61.73085257106942,
          -33.929804561819665
        ]
      }
    },
    {
      "type": "Feature",
      "properties": {
        "norad_id": 33775,
        "name": "IRIDIUM 33 DEB",
        "group": "iridium-33-debris",
        "lat": 75.98154841459484,
        "lon": -141.60570709048875,
        "alt_km": 744.6407943149743,
        "timestamp": "2025-12-04T07:39:36.516873+00:00",
        "meta_object_name": "IRIDIUM 33 DEB",
        "meta_object_id": "1997-051N",
        "meta_epoch": "2025-12-03T16:45:09.010080",
        "meta_mean_motion": 14.4143539,
        "meta_eccentricity": 0.00132542,
        "meta_inclination": 86.3643,
        "meta_ra_of_asc_node": 53.4129,
        "meta_arg_of_pericenter": 183.3567,
        "meta_mean_anomaly": 299.1013,
        "meta_ephemeris_type": 0,
        "meta_classification_type": "U",
        "meta_norad_cat_id": 33775,
        "meta_element_set_no": 999,
        "meta_rev_at_epoch": 88010,
        "meta_bstar": 0.00052280785,
        "meta_mean_motion_dot": 1.716e-05,
        "meta_mean_motion_ddot": 0,
        "tle_line1": "1 33775U 97051N   25337.69802095  .00001716  00000+0  52281-3 0  9991",
        "tle_line2": "2 33775  86.3643  53.4129 0013254 183.3567 299.1013 14.41435390880105"
      },
      "geometry": {
        "type": "Point",
        "coordinates": [
          -141.60570709048875,
          75.98154841459484
        ]
      }
    },
    {
      "type": "Feature",
      "properties": {
        "norad_id": 33776,
        "name": "IRIDIUM 33 DEB",
        "group": "iridium-33-debris",
        "lat": 70.75150691840689,
        "lon": 94.68748208718124,
        "alt_km": 765.8312418350033,
        "timestamp": "2025-12-04T07:39:36.516884+00:00",
        "meta_object_name": "IRIDIUM 33 DEB",
        "meta_object_id": "1997-051P",
        "meta_epoch": "2025-12-03T16:53:07.730016",
        "meta_mean_motion": 14.3820574,
        "meta_eccentricity": 0.0013389,
        "meta_inclination": 86.4038,
        "meta_ra_of_asc_node": 84.5703,
        "meta_arg_of_pericenter": 221.6602,
        "meta_mean_anomaly": 264.2027,
        "meta_ephemeris_type": 0,
        "meta_classification_type": "U",
        "meta_norad_cat_id": 33776,
        "meta_element_set_no": 999,
        "meta_rev_at_epoch": 87952,
        "meta_bstar": 0.00046610589,
        "meta_mean_motion_dot": 1.435e-05,
        "meta_mean_motion_ddot": 0,
        "tle_line1": "1 33776U 97051P   25337.70356169  .00001435  00000+0  46611-3 0  9998",
        "tle_line2": "2 33776  86.4038  84.5703 0013389 221.6602 264.2027 14.38205740879525"
      },
      "geometry": {
        "type": "Point",
        "coordinates": [
          94.68748208718124,
          70.75150691840689
        ]
      }
    },
    {
      "type": "Feature",
      "properties": {
        "norad_id": 33777,
        "name": "IRIDIUM 33 DEB",
        "group": "iridium-33-debris",
        "lat": 53.752081100678744,
        "lon": 43.81967957479055,
        "alt_km": 704.8182724619901,
        "timestamp": "2025-12-04T07:39:36.516903+00:00",
        "meta_object_name": "IRIDIUM 33 DEB",
        "meta_object_id": "1997-051Q",
        "meta_epoch": "2025-12-03T16:33:48.520224",
        "meta_mean_motion": 14.55497721,
        "meta_eccentricity": 0.00051456,
        "meta_inclination": 86.38,
        "meta_ra_of_asc_node": 39.1396,
        "meta_arg_of_pericenter": 291.5798,
        "meta_mean_anomaly": 68.4861,
        "meta_ephemeris_type": 0,
        "meta_classification_type": "U",
        "meta_norad_cat_id": 33777,
        "meta_element_set_no": 999,
        "meta_rev_at_epoch": 88402,
        "meta_bstar": 0.0014601621,
        "meta_mean_motion_dot": 6.375e-05,
        "meta_mean_motion_ddot": 0,
        "tle_line1": "1 33777U 97051Q   25337.69014491  .00006375  00000+0  14602-2 0  9998",
        "tle_line2": "2 33777  86.3800  39.1396 0005145 291.5798  68.4861 14.55497721884021"
      },
      "geometry": {
        "type": "Point",
        "coordinates": [
          43.81967957479055,
          53.752081100678744
        ]
      }
    },
    {
      "type": "Feature",
      "properties": {
        "norad_id": 33850,
        "name": "IRIDIUM 33 DEB",
        "group": "iridium-33-debris",
        "lat": 63.64384244126661,
        "lon": 41.21787109992009,
        "alt_km": 749.8174195773508,
        "timestamp": "2025-12-04T07:39:36.516914+00:00",
        "meta_object_name": "IRIDIUM 33 DEB",
        "meta_object_id": "1997-051T",
        "meta_epoch": "2025-12-03T22:10:26.250816",
        "meta_mean_motion": 14.42117824,
        "meta_eccentricity": 0.00112726,
        "meta_inclination": 86.3424,
        "meta_ra_of_asc_node": 33.9698,
        "meta_arg_of_pericenter": 188.7518,
        "meta_mean_anomaly": 344.5598,
        "meta_ephemeris_type": 0,
        "meta_classification_type": "U",
        "meta_norad_cat_id": 33850,
        "meta_element_set_no": 999,
        "meta_rev_at_epoch": 88025,
        "meta_bstar": 0.00074765401,
        "meta_mean_motion_dot": 2.478e-05,
        "meta_mean_motion_ddot": 0,
        "tle_line1": "1 33850U 97051T   25337.92391494  .00002478  00000+0  74765-3 0  9994",
        "tle_line2": "2 33850  86.3424  33.9698 0011272 188.7518 344.5598 14.42117824880252"
      },
      "geometry": {
        "type": "Point",
        "coordinates": [
          41.21787109992009,
          63.64384244126661
        ]
      }
    },
    {
      "type": "Feature",
      "properties": {
        "norad_id": 33853,
        "name": "IRIDIUM 33 DEB",
        "group": "iridium-33-debris",
        "lat": -46.123032719167185,
        "lon": -10.667782728243376,
        "alt_km": 809.520945814078,
        "timestamp": "2025-12-04T07:39:36.516926+00:00",
        "meta_object_name": "IRIDIUM 33 DEB",
        "meta_object_id": "1997-051W",
        "meta_epoch": "2025-12-03T12:03:16.669728",
        "meta_mean_motion": 13.98961391,
        "meta_eccentricity": 0.02068073,
        "meta_inclination": 86.0004,
        "meta_ra_of_asc_node": 353.8627,
        "meta_arg_of_pericenter": 264.3782,
        "meta_mean_anomaly": 255.9822,
        "meta_ephemeris_type": 0,
        "meta_classification_type": "U",
        "meta_norad_cat_id": 33853,
        "meta_element_set_no": 999,
        "meta_rev_at_epoch": 85216,
        "meta_bstar": 0.0030737187,
        "meta_mean_motion_dot": 5.345e-05,
        "meta_mean_motion_ddot": 0,
        "tle_line1": "1 33853U 97051W   25337.50227627  .00005345  00000+0  30737-2 0  9993",
        "tle_line2": "2 33853  86.0004 353.8627 0206807 264.3782 255.9822 13.98961391852166"
      },
      "geometry": {
        "type": "Point",
        "coordinates": [
          -10.667782728243376,
          -46.123032719167185
        ]
      }
    }
  ]
}